[{"OBJECT_NAME":"ARVAKER-2","OBJECT_ID":"2025-135AR","EPOCH":"2026-03-09T22:22:52.921344","MEAN_MOTION":14.93083026,"ECCENTRICITY":1.249e-5,"INCLINATION":97.761,"RA_OF_ASC_NODE":184.2957,"ARG_OF_PERICENTER":109.4722,"MEAN_ANOMALY":250.6511,"EPHEMERIS_TYPE":0,"CLASSIFICATION_TYPE":"U","NORAD_CAT_ID":64567,"ELEMENT_SET_NO":999,"REV_AT_EPOCH":3906,"BSTAR":0.00042135986,"MEAN_MOTION_DOT":4.333e-5,"MEAN_MOTION_DDOT":0},{"OBJECT_NAME":"H-2A DEB","OBJECT_ID":"2012-025H","EPOCH":"2026-03-09T22:19:09.565248","MEAN_MOTION":14.92558474,"ECCENTRICITY":0.00070619,"INCLINATION":98.1898,"RA_OF_ASC_NODE":197.4099,"ARG_OF_PERICENTER":85.2909,"MEAN_ANOMALY":274.9115,"EPHEMERIS_TYPE":0,"CLASSIFICATION_TYPE":"U","NORAD_CAT_ID":38347,"ELEMENT_SET_NO":999,"REV_AT_EPOCH":74399,"BSTAR":0.00053506866,"MEAN_MOTION_DOT":5.443e-5,"MEAN_MOTION_DDOT":0}]
